{"type": "FeatureCollection", "features": [ {"type": "Feature", "properties": {"norad_id": 34750, "name": "COSMOS 2251 DEB", "group": "cosmos-2251-debris", "lat": 26.95120041605644, "lon": -175.6045085826047, "alt_km": 689.9324961668626, "timestamp": "2025-12-26T05:31:12.901557+00:00", "meta": {"OBJECT_NAME": "COSMOS 2251 DEB", "OBJECT_ID": "1993-036ZU", "EPOCH": "2025-12-25T21:44:05.752032", "MEAN_MOTION": 14.61453525, "ECCENTRICITY": 0.0038249, "INCLINATION": 74.107, "RA_OF_ASC_NODE": 176.6835, "ARG_OF_PERICENTER": 125.1778, "MEAN_ANOMALY": 357.4944, "EPHEMERIS_TYPE": 0, "CLASSIFICATION_TYPE": "U", "NORAD_CAT_ID": 34750, "ELEMENT_SET_NO": 999, "REV_AT_EPOCH": 88423, "BSTAR": 0.0012017337, "MEAN_MOTION_DOT": 5.991e-05, "MEAN_MOTION_DDOT": 0}, "tle": {"line1": "1 34750U 93036ZU  25359.90562213  .00005991  00000+0  12017-2 0  9998", "line2": "2 34750  74.1070 176.6835 0038249 125.1778 357.4944 14.61453525884230"}}, "geometry": {"type": "Point", "coordinates": [-175.6045085826047, 26.95120041605644]}}, {"type": "Feature", "properties": {"norad_id": 34752, "name": "COSMOS 2251 DEB", "group": "cosmos-2251-debris", "lat": -62.53096989963589, "lon": -173.3909517237157, "alt_km": 601.5748571409513, "timestamp": "2025-12-26T05:31:12.901567+00:00", "meta": {"OBJECT_NAME": "COSMOS 2251 DEB", "OBJECT_ID": "1993-036ZW", "EPOCH": "2025-12-25T23:37:25.046688", "MEAN_MOTION": 15.00235856, "ECCENTRICITY": 0.00475543, "INCLINATION": 74.0136, "RA_OF_ASC_NODE": 333.6429, "ARG_OF_PERICENTER": 97.782, "MEAN_ANOMALY": 262.877, "EPHEMERIS_TYPE": 0, "CLASSIFICATION_TYPE": "U", "NORAD_CAT_ID": 34752, "ELEMENT_SET_NO": 999, "REV_AT_EPOCH": 90048, "BSTAR": 0.0010229911, "MEAN_MOTION_DOT": 0.00013096, "MEAN_MOTION_DDOT": 0}, "tle": {"line1": "1 34752U 93036ZW  25359.98431767  .00013096  00000+0  10230-2 0  9997", "line2": "2 34752  74.0136 333.6429 0047554  97.7820 262.8770 15.00235856900480"}}, "geometry": {"type": "Point", "coordinates": [-173.3909517237157, -62.53096989963589]}}, {"type": "Feature", "properties": {"norad_id": 34754, "name": "COSMOS 2251 DEB", "group": "cosmos-2251-debris", "lat": -28.27171811885361, "lon": 31.509083804167425, "alt_km": 768.4314050537623, "timestamp": "2025-12-26T05:31:12.901577+00:00", "meta": {"OBJECT_NAME": "COSMOS 2251 DEB", "OBJECT_ID": "1993-036ZY", "EPOCH": "2025-12-25T00:55:15.569760", "MEAN_MOTION": 14.40497897, "ECCENTRICITY": 0.0030006, "INCLINATION": 74.0289, "RA_OF_ASC_NODE": 204.8528, "ARG_OF_PERICENTER": 318.6589, "MEAN_ANOMALY": 193.9982, "EPHEMERIS_TYPE": 0, "CLASSIFICATION_TYPE": "U", "NORAD_CAT_ID": 34754, "ELEMENT_SET_NO": 999, "REV_AT_EPOCH": 88310, "BSTAR": 0.0001940579, "MEAN_MOTION_DOT": 5.94e-06, "MEAN_MOTION_DDOT": 0}, "tle": {"line1": "1 34754U 93036ZY  25359.03837465  .00000594  00000+0  19406-3 0  9994", "line2": "2 34754  74.0289 204.8528 0030006 318.6589 193.9982 14.40497897883107"}}, "geometry": {"type": "Point", "coordinates": [31.509083804167425, -28.27171811885361]}}, {"type": "Feature", "properties": {"norad_id": 34755, "name": "COSMOS 2251 DEB", "group": "cosmos-2251-debris", "lat": -73.38476606708913, "lon": -166.72258141593701, "alt_km": 778.9271919153016, "timestamp": "2025-12-26T05:31:12.901587+00:00", "meta": {"OBJECT_NAME": "COSMOS 2251 DEB", "OBJECT_ID": "1993-036ZZ", "EPOCH": "2025-12-25T10:58:37.231104", "MEAN_MOTION": 13.50579623, "ECCENTRICITY": 0.0407887, "INCLINATION": 73.9257, "RA_OF_ASC_NODE": 269.5833, "ARG_OF_PERICENTER": 287.1758, "MEAN_ANOMALY": 192.7333, "EPHEMERIS_TYPE": 0, "CLASSIFICATION_TYPE": "U", "NORAD_CAT_ID": 34755, "ELEMENT_SET_NO": 999, "REV_AT_EPOCH": 82695, "BSTAR": 0.00071737, "MEAN_MOTION_DOT": 7.49e-06, "MEAN_MOTION_DDOT": 0}, "tle": {"line1": "1 34755U 93036ZZ  25359.45737536  .00000749  00000+0  71737-3 0  9996", "line2": "2 34755  73.9257 269.5833 0407887 287.1758 192.7333 13.50579623826956"}}, "geometry": {"type": "Point", "coordinates": [-166.72258141593701, -73.38476606708913]}}, {"type": "Feature", "properties": {"norad_id": 34756, "name": "COSMOS 2251 DEB", "group": "cosmos-2251-debris", "lat": -73.87075879477064, "lon": -15.0915935834266, "alt_km": 837.8209903413117, "timestamp": "2025-12-26T05:31:12.901597+00:00", "meta": {"OBJECT_NAME": "COSMOS 2251 DEB", "OBJECT_ID": "1993-036AAA", "EPOCH": "2025-12-24T15:18:41.454720", "MEAN_MOTION": 13.67272702, "ECCENTRICITY": 0.0345926, "INCLINATION": 74.0032, "RA_OF_ASC_NODE": 84.8024, "ARG_OF_PERICENTER": 318.0621, "MEAN_ANOMALY": 39.4462, "EPHEMERIS_TYPE": 0, "CLASSIFICATION_TYPE": "U", "NORAD_CAT_ID": 34756, "ELEMENT_SET_NO": 999, "REV_AT_EPOCH": 83584, "BSTAR": 0.0010747811, "MEAN_MOTION_DOT": 1.342e-05, "MEAN_MOTION_DDOT": 0}, "tle": {"line1": "1 34756U 93036AAA 25358.63797980  .00001342  00000+0  10748-2 0  9999", "line2": "2 34756  74.0032  84.8024 0345926 318.0621  39.4462 13.67272702835842"}}, "geometry": {"type": "Point", "coordinates": [-15.0915935834266, -73.87075879477064]}}, {"type": "Feature", "properties": {"norad_id": 34758, "name": "COSMOS 2251 DEB", "group": "cosmos-2251-debris", "lat": -61.39537383878108, "lon": -113.70996364288374, "alt_km": 1108.7437790897047, "timestamp": "2025-12-26T05:31:12.901607+00:00", "meta": {"OBJECT_NAME": "COSMOS 2251 DEB", "OBJECT_ID": "1993-036AAC", "EPOCH": "2025-12-25T01:33:06.423552", "MEAN_MOTION": 13.58115883, "ECCENTRICITY": 0.03824027, "INCLINATION": 74.107, "RA_OF_ASC_NODE": 279.661, "ARG_OF_PERICENTER": 40.5031, "MEAN_ANOMALY": 322.3879, "EPHEMERIS_TYPE": 0, "CLASSIFICATION_TYPE": "U", "NORAD_CAT_ID": 34758, "ELEMENT_SET_NO": 999, "REV_AT_EPOCH": 83077, "BSTAR": 0.0017795069, "MEAN_MOTION_DOT": 2.058e-05, "MEAN_MOTION_DDOT": 0}, "tle": {"line1": "1 34758U 93036AAC 25359.06465768  .00002058  00000+0  17795-2 0  9999", "line2": "2 34758  74.1070 279.6610 0382402  40.5031 322.3879 13.58115883830773"}}, "geometry": {"type": "Point", "coordinates": [-113.70996364288374, -61.39537383878108]}}, {"type": "Feature", "properties": {"norad_id": 34760, "name": "COSMOS 2251 DEB", "group": "cosmos-2251-debris", "lat": -63.18528293092418, "lon": -116.13793207399895, "alt_km": 776.2582751972404, "timestamp": "2025-12-26T05:31:12.901618+00:00", "meta": {"OBJECT_NAME": "COSMOS 2251 DEB", "OBJECT_ID": "1993-036AAE", "EPOCH": "2025-12-25T11:47:05.253792", "MEAN_MOTION": 14.1960114, "ECCENTRICITY": 0.0097301, "INCLINATION": 74.0632, "RA_OF_ASC_NODE": 279.6032, "ARG_OF_PERICENTER": 328.9343, "MEAN_ANOMALY": 148.5075, "EPHEMERIS_TYPE": 0, "CLASSIFICATION_TYPE": "U", "NORAD_CAT_ID": 34760, "ELEMENT_SET_NO": 999, "REV_AT_EPOCH": 86869, "BSTAR": 0.0006002, "MEAN_MOTION_DOT": 1.303e-05, "MEAN_MOTION_DDOT": 0}, "tle": {"line1": "1 34760U 93036AAE 25359.49103303  .00001303  00000+0  60020-3 0  9995", "line2": "2 34760  74.0632 279.6032 0097301 328.9343 148.5075 14.19601140868699"}}, "geometry": {"type": "Point", "coordinates": [-116.13793207399895, -63.18528293092418]}}, {"type": "Feature", "properties": {"norad_id": 34761, "name": "COSMOS 2251 DEB", "group": "cosmos-2251-debris", "lat": 28.32503914090069, "lon": -13.188982544982318, "alt_km": 738.5028912386106, "timestamp": "2025-12-26T05:31:12.901628+00:00", "meta": {"OBJECT_NAME": "COSMOS 2251 DEB", "OBJECT_ID": "1993-036AAF", "EPOCH": "2025-12-24T04:58:02.700480", "MEAN_MOTION": 14.38089541, "ECCENTRICITY": 0.00370278, "INCLINATION": 74.0286, "RA_OF_ASC_NODE": 341.6577, "ARG_OF_PERICENTER": 12.6034, "MEAN_ANOMALY": 347.6036, "EPHEMERIS_TYPE": 0, "CLASSIFICATION_TYPE": "U", "NORAD_CAT_ID": 34761, "ELEMENT_SET_NO": 999, "REV_AT_EPOCH": 87814, "BSTAR": 0.00063419722, "MEAN_MOTION_DOT": 1.911e-05, "MEAN_MOTION_DDOT": 0}, "tle": {"line1": "1 34761U 93036AAF 25358.20697570  .00001911  00000+0  63420-3 0  9990", "line2": "2 34761  74.0286 341.6577 0037027  12.6034 347.6036 14.38089541878148"}}, "geometry": {"type": "Point", "coordinates": [-13.188982544982318, 28.32503914090069]}}, {"type": "Feature", "properties": {"norad_id": 34784, "name": "COSMOS 2251 DEB", "group": "cosmos-2251-debris", "lat": -69.07216229516949, "lon": -110.05121540650694, "alt_km": 732.0978922959521, "timestamp": "2025-12-26T05:31:12.901638+00:00", "meta": {"OBJECT_NAME": "COSMOS 2251 DEB", "OBJECT_ID": "1993-036AAM", "EPOCH": "2025-12-25T20:00:36.837216", "MEAN_MOTION": 14.6083756, "ECCENTRICITY": 0.00491076, "INCLINATION": 74.0077, "RA_OF_ASC_NODE": 299.2916, "ARG_OF_PERICENTER": 104.7203, "MEAN_ANOMALY": 255.9413, "EPHEMERIS_TYPE": 0, "CLASSIFICATION_TYPE": "U", "NORAD_CAT_ID": 34784, "ELEMENT_SET_NO": 999, "REV_AT_EPOCH": 88726, "BSTAR": 0.00051075753, "MEAN_MOTION_DOT": 2.509e-05, "MEAN_MOTION_DDOT": 0}, "tle": {"line1": "1 34784U 93036AAM 25359.83375969  .00002509  00000+0  51076-3 0  9998", "line2": "2 34784  74.0077 299.2916 0049107 104.7203 255.9413 14.60837560887269"}}, "geometry": {"type": "Point", "coordinates": [-110.05121540650694, -69.07216229516949]}}, {"type": "Feature", "properties": {"norad_id": 34790, "name": "COSMOS 2251 DEB", "group": "cosmos-2251-debris", "lat": 73.07626497503885, "lon": -30.590129510151677, "alt_km": 874.392818921453, "timestamp": "2025-12-26T05:31:12.901648+00:00", "meta": {"OBJECT_NAME": "COSMOS 2251 DEB", "OBJECT_ID": "1993-036AAT", "EPOCH": "2025-12-25T15:51:16.162272", "MEAN_MOTION": 14.24671167, "ECCENTRICITY": 0.0100473, "INCLINATION": 74.0524, "RA_OF_ASC_NODE": 220.442, "ARG_OF_PERICENTER": 279.3563, "MEAN_ANOMALY": 137.0748, "EPHEMERIS_TYPE": 0, "CLASSIFICATION_TYPE": "U", "NORAD_CAT_ID": 34790, "ELEMENT_SET_NO": 999, "REV_AT_EPOCH": 86757, "BSTAR": 0.00054898, "MEAN_MOTION_DOT": 1.32e-05, "MEAN_MOTION_DDOT": 0}, "tle": {"line1": "1 34790U 93036AAT 25359.66060373  .00001320  00000+0  54898-3 0  9991", "line2": "2 34790  74.0524 220.4420 0100473 279.3563 137.0748 14.24671167867573"}}, "geometry": {"type": "Point", "coordinates": [-30.590129510151677, 73.07626497503885]}}]}